IRIDIUM 126             
1 42809U 17039G   25042.88526523  .00000218  00000+0  70897-4 0  9990
2 42809  86.4001 198.5104 0002114 100.8064 259.3369 14.34218123399679
IRIDIUM 124             
1 42810U 17039H   25042.74469264  .00000598  00000+0  17186-3 0  9997
2 42810  86.4532 135.4247 0002321  90.4544 269.6923 14.43272320404378
IRIDIUM 128             
1 42811U 17039J   25042.94576706  .00000015  00000+0 -18475-5 0  9999
2 42811  86.3946 229.9730 0002264  87.2634 272.8821 14.34217316399711
IRIDIUM 121             
1 42812U 17039K   25043.18336690  .00000125  00000+0  37729-4 0  9996
2 42812  86.4003 198.4102 0002106  89.4918 270.6519 14.34218296399712
IRIDIUM 133             
1 42955U 17061A   25042.90771586  .00000033  00000+0  48066-5 0  9990
2 42955  86.3946 230.0945 0002227  91.5306 268.6145 14.34217923384501
IRIDIUM 100             
1 42956U 17061B   25042.90137313  .00000034  00000+0  49940-5 0  9998
2 42956  86.3943 230.0273 0002235  91.7450 268.4002 14.34217863384507
IRIDIUM 122             
1 42957U 17061C   25042.93942829  .00000009  00000+0 -38187-5 0  9992
2 42957  86.3947 230.0103 0002129  97.2761 262.8677 14.34217593384519
IRIDIUM 129             
1 42958U 17061D   25042.89502944  .00000043  00000+0  82762-5 0  9993
2 42958  86.3945 230.0906 0001710  97.0494 263.0896 14.34217944384522
